NORAD_CAT_ID,OBJECT_NAME,OBJECT_TYPE,EPOCH,MEAN_MOTION,ECCENTRICITY,INCLINATION,RA_OF_ASC_NODE,ARG_OF_PERICENTER,MEAN_ANOMALY,BSTAR,MEAN_MOTION_DOT,MEAN_MOTION_DDOT,TLE_LINE0,TLE_LINE1,TLE_LINE2,SEMIMAJOR_AXIS,PERIOD,APOGEE,PERIGEE,DECAYED
49458.0,STARLINK-3156,PAYLOAD,2024-01-03 18:58:22,15.08845437,0.0001351,53.2159,192.0519,87.6689,272.4458,0.00010497,1.383e-05,0.0,0 STARLINK-3156,1 49458U 21104BC  24003.79054339  .00001383  00000-0  10497-3 0  9996,2 49458  53.2159 192.0519 0001351  87.6689 272.4458 15.08845437118623,6917.864,95.437,540.663,538.794,0.0
49458.0,STARLINK-3156,PAYLOAD,2024-01-04 18:49:10,15.0884285,0.0001347,53.216,187.591,91.6321,268.4826,2.0905e-05,4.5e-07,0.0,0 STARLINK-3156,1 49458U 21104BC  24004.78414502  .00000045  00000-0  20905-4 0  9998,2 49458  53.2160 187.5910 0001347  91.6321 268.4826 15.08842850119858,6917.872,95.437,540.669,538.805,0.0
49458.0,STARLINK-3156,PAYLOAD,2024-01-04 21:59:56,15.08842545,0.0001348,53.216,186.9964,90.9805,269.1341,1.7909e-05,-3e-08,0.0,0 STARLINK-3156,1 49458U 21104BC  24004.91662496 -.00000003  00000-0  17909-4 0  9995,2 49458  53.2160 186.9964 0001348  90.9805 269.1341 15.08842545118793,6917.873,95.437,540.67,538.805,0.0
49458.0,STARLINK-3156,PAYLOAD,2024-01-05 12:18:24,15.08838797,0.0001361,53.2161,184.3196,92.2418,267.873,-3.5425e-05,-8.52e-06,0.0,0 STARLINK-3156,1 49458U 21104BC  24005.51278884 -.00000852  00000-0 -35425-4 0  9992,2 49458  53.2161 184.3196 0001361  92.2418 267.8730 15.08838797118884,6917.884,95.438,540.691,538.808,0.0
49458.0,STARLINK-3156,PAYLOAD,2024-01-05 17:04:34,15.08838273,0.0001333,53.2162,183.427,97.737,262.3774,-4.4561e-05,-9.97e-06,0.0,0 STARLINK-3156,1 49458U 21104BC  24005.71150910 -.00000997  00000-0 -44561-4 0  9994,2 49458  53.2162 183.4270 0001333  97.7370 262.3774 15.08838273119994,6917.886,95.438,540.673,538.829,0.0
49458.0,STARLINK-3156,PAYLOAD,2024-01-06 12:09:11,15.08838288,0.0001306,53.2166,179.858,98.1056,262.0084,3.6308e-05,2.9e-06,0.0,0 STARLINK-3156,1 49458U 21104BC  24006.50638689  .00000290  00000-0  36308-4 0  9990,2 49458  53.2166 179.8580 0001306  98.1056 262.0084 15.08838288119039,6917.886,95.438,540.654,538.847,0.0
49458.0,STARLINK-3156,PAYLOAD,2024-01-06 16:55:21,15.08839904,0.0001276,53.2166,178.966,97.5591,262.5546,4.5946e-05,4.43e-06,0.0,0 STARLINK-3156,1 49458U 21104BC  24006.70510585  .00000443  00000-0  45946-4 0  9994,2 49458  53.2166 178.9660 0001276  97.5591 262.5546 15.08839904119068,6917.881,95.438,540.628,538.863,0.0
49458.0,STARLINK-3156,PAYLOAD,2024-01-07 10:24:36,15.08835061,0.0001204,53.2166,175.6962,87.7446,272.3684,5.5591e-05,5.97e-06,0.0,0 STARLINK-3156,1 49458U 21104BC  24007.43375051  .00000597  00000-0  55591-4 0  9999,2 49458  53.2166 175.6962 0001204  87.7446 272.3684 15.08835061120253,6917.895,95.438,540.593,538.928,0.0
49458.0,STARLINK-3156,PAYLOAD,2024-01-07 13:35:22,15.08835703,0.0001199,53.2166,175.1013,86.9041,273.2088,4.9396e-05,4.98e-06,0.0,0 STARLINK-3156,1 49458U 21104BC  24007.56623092  .00000498  00000-0  49396-4 0  9990,2 49458  53.2166 175.1013 0001199  86.9041 273.2088 15.08835703119192,6917.894,95.438,540.588,538.929,0.0
49458.0,STARLINK-3156,PAYLOAD,2024-01-07 19:56:54,15.08836446,0.0001208,53.2167,173.9117,87.5094,272.6036,5.0666e-05,5.19e-06,0.0,0 STARLINK-3156,1 49458U 21104BC  24007.83119090  .00000519  00000-0  50666-4 0  9994,2 49458  53.2167 173.9117 0001208  87.5094 272.6036 15.08836446119236,6917.891,95.438,540.592,538.921,0.0
49458.0,STARLINK-3156,PAYLOAD,2024-01-08 13:26:09,15.08837876,0.0001202,53.2167,170.6408,88.3613,271.7516,2.2153e-05,6.5e-07,0.0,0 STARLINK-3156,1 49458U 21104BC  24008.55983236  .00000065  00000-0  22153-4 0  9991,2 49458  53.2167 170.6408 0001202  88.3613 271.7516 15.08837876119346,6917.887,95.438,540.583,538.92,0.0
49458.0,STARLINK-3156,PAYLOAD,2024-01-08 18:12:18,15.08841062,0.0001199,53.2167,169.7488,87.8342,272.2787,4.6554e-05,4.53e-06,0.0,0 STARLINK-3156,1 49458U 21104BC  24008.75854971  .00000453  00000-0  46554-4 0  9998,2 49458  53.2167 169.7488 0001199  87.8342 272.2787 15.08841062120453,6917.877,95.437,540.572,538.913,0.0
49458.0,STARLINK-3156,PAYLOAD,2024-01-09 14:52:19,15.08842852,0.0001186,53.2167,165.8829,88.4972,271.6156,8.0246e-05,9.9e-06,0.0,0 STARLINK-3156,1 49458U 21104BC  24009.61966722  .00000990  00000-0  80246-4 0  9994,2 49458  53.2167 165.8829 0001186  88.4972 271.6156 15.08842852119506,6917.872,95.437,540.557,538.916,0.0
49458.0,STARLINK-3156,PAYLOAD,2024-01-09 19:38:28,15.08848423,0.0001227,53.2168,164.9904,86.5922,273.521,0.00011969,1.618e-05,0.0,0 STARLINK-3156,1 49458U 21104BC  24009.81838234  .00001618  00000-0  11969-3 0  9995,2 49458  53.2168 164.9904 0001227  86.5922 273.5210 15.08848423120617,6917.855,95.437,540.568,538.871,0.0
49458.0,STARLINK-3156,PAYLOAD,2024-01-10 09:56:57,15.08839142,0.0001626,53.216,162.3113,137.743,222.3687,-1.7293e-05,-5.63e-06,0.0,0 STARLINK-3156,1 49458U 21104BC  24010.41454975 -.00000563  00000-0 -17293-4 0  9996,2 49458  53.2160 162.3113 0001626 137.7430 222.3687 15.08839142120707,6917.883,95.438,540.873,538.623,0.0
49458.0,STARLINK-3156,PAYLOAD,2024-01-10 19:29:15,15.08846248,0.0001177,53.2165,160.5307,90.9644,269.1483,6.6426e-05,7.7e-06,0.0,0 STARLINK-3156,1 49458U 21104BC  24010.81198499  .00000770  00000-0  66426-4 0  9996,2 49458  53.2165 160.5307 0001177  90.9644 269.1483 15.08846248120769,6917.861,95.437,540.541,538.912,0.0
49458.0,STARLINK-3156,PAYLOAD,2024-01-11 14:33:53,15.08844533,0.0001321,53.2165,156.9621,81.9683,278.1459,1.6631e-05,-2.3e-07,0.0,0 STARLINK-3156,1 49458U 21104BC  24011.60686705 -.00000023  00000-0  16631-4 0  9991,2 49458  53.2165 156.9621 0001321  81.9683 278.1459 15.08844533119802,6917.867,95.437,540.645,538.818,0.0
49458.0,STARLINK-3156,PAYLOAD,2024-01-11 16:09:16,15.08847923,0.000145,53.217,156.6645,72.7761,287.339,3.6261e-05,2.89e-06,0.0,0 STARLINK-3156,1 49458U 21104BC  24011.67310482  .00000289  00000-0  36261-4 0  9998,2 49458  53.2170 156.6645 0001450  72.7761 287.3390 15.08847923119812,6917.856,95.437,540.724,538.718,0.0
49458.0,STARLINK-3156,PAYLOAD,2024-01-12 09:38:31,15.08836541,0.0001187,53.217,153.3929,94.171,265.9417,-1.7319e-05,-5.63e-06,0.0,0 STARLINK-3156,1 49458U 21104BC  24012.40175381 -.00000563  00000-0 -17319-4 0  9997,2 49458  53.2170 153.3929 0001187  94.1710 265.9417 15.08836541121000,6917.891,95.438,540.577,538.935,0.0
49458.0,STARLINK-3156,PAYLOAD,2024-01-12 14:24:41,15.0883611,0.0001287,53.217,152.5009,94.0783,266.0356,-2.2999e-05,-6.54e-06,0.0,0 STARLINK-3156,1 49458U 21104BC  24012.60047454 -.00000654  00000-0 -22999-4 0  9999,2 49458  53.2170 152.5009 0001287  94.0783 266.0356 15.08836110119957,6917.892,95.438,540.648,538.867,0.0
49458.0,STARLINK-3156,PAYLOAD,2024-01-12 16:00:04,15.08836724,0.0001273,53.2172,152.2037,90.1349,269.9789,-1.9325e-05,-5.95e-06,0.0,0 STARLINK-3156,1 49458U 21104BC  24012.66671418 -.00000595  00000-0 -19325-4 0  9991,2 49458  53.2172 152.2037 0001273  90.1349 269.9789 15.08836724119961,6917.89,95.438,540.636,538.875,0.0
49458.0,STARLINK-3156,PAYLOAD,2024-01-13 14:15:27,15.08844783,0.0001325,53.2168,148.0414,85.5898,274.5245,2.3464e-05,8.6e-07,0.0,0 STARLINK-3156,1 49458U 21104BC  24013.59407184  .00000086  00000-0  23464-4 0  9993,2 49458  53.2168 148.0414 0001325  85.5898 274.5245 15.08844783120104,6917.866,95.437,540.647,538.814,0.0
49458.0,STARLINK-3156,PAYLOAD,2024-01-14 12:30:52,15.08835329,0.000134,53.2164,143.8796,83.0153,277.0991,0.00011488,1.541e-05,0.0,0 STARLINK-3156,1 49458U 21104BC  24014.52143827  .00001541  00000-0  11488-3 0  9997,2 49458  53.2164 143.8796 0001340  83.0153 277.0991 15.08835329121327,6917.895,95.438,540.687,538.833,0.0
49458.0,STARLINK-3156,PAYLOAD,2024-01-14 14:06:15,15.08837564,0.0001427,53.2163,143.5822,91.0095,269.1061,0.00015467,2.174e-05,0.0,0 STARLINK-3156,1 49458U 21104BC  24014.58767624  .00002174  00000-0  15467-3 0  9994,2 49458  53.2163 143.5822 0001427  91.0095 269.1061 15.08837564120257,6917.888,95.438,540.74,538.766,0.0
49458.0,STARLINK-3156,PAYLOAD,2024-01-15 13:57:02,15.08845615,0.0001316,53.216,139.1221,83.7521,276.3621,9.135e-05,1.166e-05,0.0,0 STARLINK-3156,1 49458U 21104BC  24015.58127364  .00001166  00000-0  91350-4 0  9992,2 49458  53.2160 139.1221 0001316  83.7521 276.3621 15.08845615120402,6917.863,95.437,540.639,538.818,0.0
49458.0,STARLINK-3156,PAYLOAD,2024-01-15 15:32:25,15.08848316,0.0001493,53.2165,138.825,77.8945,282.2214,9.5758e-05,1.237e-05,0.0,0 STARLINK-3156,1 49458U 21104BC  24015.64751241  .00001237  00000-0  95758-4 0  9991,2 49458  53.2165 138.8250 0001493  77.8945 282.2214 15.08848316121490,6917.855,95.437,540.753,538.687,0.0
49458.0,STARLINK-3156,PAYLOAD,2024-01-16 12:12:26,15.08835672,0.0001339,53.2174,134.9607,67.0161,293.0972,4.1458e-05,3.72e-06,0.0,0 STARLINK-3156,1 49458U 21104BC  24016.50864492  .00000372  00000-0  41458-4 0  9997,2 49458  53.2174 134.9607 0001339  67.0161 293.0972 15.08835672121620,6917.894,95.438,540.685,538.832,0.0
49458.0,STARLINK-3156,PAYLOAD,2024-01-16 13:47:49,15.08838521,0.000129,53.2164,134.6616,82.95,277.1639,3.6195e-05,2.88e-06,0.0,0 STARLINK-3156,1 49458U 21104BC  24016.57488195  .00000288  00000-0  36195-4 0  9994,2 49458  53.2164 134.6616 0001290  82.9500 277.1639 15.08838521120555,6917.885,95.438,540.642,538.858,0.0
49458.0,STARLINK-3156,PAYLOAD,2024-01-16 15:23:12,15.08840475,0.0001279,53.2167,134.3647,80.8438,279.2699,7.1281e-05,8.47e-06,0.0,0 STARLINK-3156,1 49458U 21104BC  24016.64112083  .00000847  00000-0  71281-4 0  9998,2 49458  53.2167 134.3647 0001279  80.8438 279.2699 15.08840475120564,6917.879,95.438,540.629,538.859,0.0
49458.0,STARLINK-3156,PAYLOAD,2024-01-17 13:38:36,15.08844208,0.0001445,53.2177,130.2008,67.6833,292.4312,5.1674e-05,5.35e-06,0.0,0 STARLINK-3156,1 49458U 21104BC  24017.56848123  .00000535  00000-0  51674-4 0  9999,2 49458  53.2177 130.2008 0001445  67.6833 292.4312 15.08844208120701,6917.868,95.437,540.732,538.733,0.0
